{
  "type": "FeatureCollection",
  "features": [
    {
      "type": "Feature",
      "geometry": {
        "type": "Polygon",
        "coordinates": [
          [
            [
              -76.33787939979497,
              39.54837267239452
            ],
            [
              -76.33415141818635,
              39.54837267239452
            ],
            [
              -76.33415141818635,
              39.55124724520106
            ],
            [
              -76.33787939979497,
              39.55124724520106
            ],
            [
              -76.33787939979497,
              39.54837267239452
            ]
          ]
        ]
      },
      "properties": {
        "cell_id": "dr18yzvf3fv"
      }
    },
    {
      "type": "Feature",
      "geometry": {
        "type": "Polygon",
        "coordinates": [
          [
            [
              -76.33601540899066,
              39.549809958797795
            ],
            [
              -76.33228742738204,
              39.549809958797795
            ],
            [
              -76.33228742738204,
              39.552684531604335
            ],
            [
              -76.33601540899066,
              39.552684531604335
            ],
            [
              -76.33601540899066,
              39.549809958797795
            ]
          ]
        ]
      },
      "properties": {
        "cell_id": "dr19nbp4tqg"
      }
    },
    {
      "type": "Feature",
      "geometry": {
        "type": "Polygon",
        "coordinates": [
          [
            [
              -76.33415141818635,
              39.54837267239452
            ],
            [
              -76.33042343657773,
              39.54837267239452
            ],
            [
              -76.33042343657773,
              39.55124724520106
            ],
            [
              -76.33415141818635,
              39.55124724520106
            ],
            [
              -76.33415141818635,
              39.54837267239452
            ]
          ]
        ]
      },
      "properties": {
        "cell_id": "dr18zpbd2fc"
      }
    },
    {
      "type": "Feature",
      "geometry": {
        "type": "Polygon",
        "coordinates": [
          [
            [
              -76.33228742738204,
              39.549809958797795
            ],
            [
              -76.32855944577342,
              39.549809958797795
            ],
            [
              -76.32855944577342,
              39.552684531604335
            ],
            [
              -76.33228742738204,
              39.552684531604335
            ],
            [
              -76.33228742738204,
              39.549809958797795
            ]
          ]
        ]
      },
      "properties": {
        "cell_id": "dr19p01fsnz"
      }
    },
    {
      "type": "Feature",
      "geometry": {
        "type": "Polygon",
        "coordinates": [
          [
            [
              -76.33042343657772,
              39.54837267239452
            ],
            [
              -76.3266954549691,
              39.54837267239452
            ],
            [
              -76.3266954549691,
              39.55124724520106
            ],
            [
              -76.33042343657772,
              39.55124724520106
            ],
            [
              -76.33042343657772,
              39.54837267239452
            ]
          ]
        ]
      },
      "properties": {
        "cell_id": "dr18zpg4rdu"
      }
    },
    {
      "type": "Feature",
      "geometry": {
        "type": "Polygon",
        "coordinates": [
          [
            [
              -76.32855944577341,
              39.549809958797795
            ],
            [
              -76.32483146416479,
              39.549809958797795
            ],
            [
              -76.32483146416479,
              39.552684531604335
            ],
            [
              -76.32855944577341,
              39.552684531604335
            ],
            [
              -76.32855944577341,
              39.549809958797795
            ]
          ]
        ]
      },
      "properties": {
        "cell_id": "dr19p0hdenf"
      }
    },
    {
      "type": "Feature",
      "geometry": {
        "type": "Polygon",
        "coordinates": [
          [
            [
              -76.3266954549691,
              39.54837267239452
            ],
            [
              -76.32296747336048,
              39.54837267239452
            ],
            [
              -76.32296747336048,
              39.55124724520106
            ],
            [
              -76.3266954549691,
              39.55124724520106
            ],
            [
              -76.3266954549691,
              39.54837267239452
            ]
          ]
        ]
      },
      "properties": {
        "cell_id": "dr18zpvfqdb"
      }
    },
    {
      "type": "Feature",
      "geometry": {
        "type": "Polygon",
        "coordinates": [
          [
            [
              -76.32483146416479,
              39.549809958797795
            ],
            [
              -76.32110348255617,
              39.549809958797795
            ],
            [
              -76.32110348255617,
              39.552684531604335
            ],
            [
              -76.32483146416479,
              39.552684531604335
            ],
            [
              -76.32483146416479,
              39.549809958797795
            ]
          ]
        ]
      },
      "properties": {
        "cell_id": "dr19p0p69yy"
      }
    },
    {
      "type": "Feature",
      "geometry": {
        "type": "Polygon",
        "coordinates": [
          [
            [
              -76.32296747336048,
              39.54837267239452
            ],
            [
              -76.31923949175186,
              39.54837267239452
            ],
            [
              -76.31923949175186,
              39.55124724520106
            ],
            [
              -76.32296747336048,
              39.55124724520106
            ],
            [
              -76.32296747336048,
              39.54837267239452
            ]
          ]
        ]
      },
      "properties": {
        "cell_id": "dr18zrbdm6u"
      }
    },
    {
      "type": "Feature",
      "geometry": {
        "type": "Polygon",
        "coordinates": [
          [
            [
              -76.32110348255617,
              39.549809958797795
            ],
            [
              -76.31737550094755,
              39.549809958797795
            ],
            [
              -76.31737550094755,
              39.552684531604335
            ],
            [
              -76.32110348255617,
              39.552684531604335
            ],
            [
              -76.32110348255617,
              39.549809958797795
            ]
          ]
        ]
      },
      "properties": {
        "cell_id": "dr19p2448yf"
      }
    },
    {
      "type": "Feature",
      "geometry": {
        "type": "Polygon",
        "coordinates": [
          [
            [
              -76.31923949175184,
              39.54837267239452
            ],
            [
              -76.31551151014322,
              39.54837267239452
            ],
            [
              -76.31551151014322,
              39.55124724520106
            ],
            [
              -76.31923949175184,
              39.55124724520106
            ],
            [
              -76.31923949175184,
              39.54837267239452
            ]
          ]
        ]
      },
      "properties": {
        "cell_id": "dr18zrg6k6b"
      }
    },
    {
      "type": "Feature",
      "geometry": {
        "type": "Polygon",
        "coordinates": [
          [
            [
              -76.31737550094753,
              39.549809958797795
            ],
            [
              -76.31364751933891,
              39.549809958797795
            ],
            [
              -76.31364751933891,
              39.552684531604335
            ],
            [
              -76.31737550094753,
              39.552684531604335
            ],
            [
              -76.31737550094753,
              39.549809958797795
            ]
          ]
        ]
      },
      "properties": {
        "cell_id": "dr19p2hdxwy"
      }
    },
    {
      "type": "Feature",
      "geometry": {
        "type": "Polygon",
        "coordinates": [
          [
            [
              -76.31551151014322,
              39.54837267239452
            ],
            [
              -76.3117835285346,
              39.54837267239452
            ],
            [
              -76.3117835285346,
              39.55124724520106
            ],
            [
              -76.31551151014322,
              39.55124724520106
            ],
            [
              -76.31551151014322,
              39.54837267239452
            ]
          ]
        ]
      },
      "properties": {
        "cell_id": "dr18zry474u"
      }
    },
    {
      "type": "Feature",
      "geometry": {
        "type": "Polygon",
        "coordinates": [
          [
            [
              -76.31364751933891,
              39.549809958797795
            ],
            [
              -76.3099195377303,
              39.549809958797795
            ],
            [
              -76.3099195377303,
              39.552684531604335
            ],
            [
              -76.31364751933891,
              39.552684531604335
            ],
            [
              -76.31364751933891,
              39.549809958797795
            ]
          ]
        ]
      },
      "properties": {
        "cell_id": "dr19p2p6wwc"
      }
    },
    {
      "type": "Feature",
      "geometry": {
        "type": "Polygon",
        "coordinates": [
          [
            [
              -76.3117835285346,
              39.54837267239452
            ],
            [
              -76.30805554692598,
              39.54837267239452
            ],
            [
              -76.30805554692598,
              39.55124724520106
            ],
            [
              -76.3117835285346,
              39.55124724520106
            ],
            [
              -76.3117835285346,
              39.54837267239452
            ]
          ]
        ]
      },
      "properties": {
        "cell_id": "dr18zxbf3fz"
      }
    },
    {
      "type": "Feature",
      "geometry": {
        "type": "Polygon",
        "coordinates": [
          [
            [
              -76.3099195377303,
              39.549809958797795
            ],
            [
              -76.30619155612168,
              39.549809958797795
            ],
            [
              -76.30619155612168,
              39.552684531604335
            ],
            [
              -76.3099195377303,
              39.552684531604335
            ],
            [
              -76.3099195377303,
              39.549809958797795
            ]
          ]
        ]
      },
      "properties": {
        "cell_id": "dr19p844tqv"
      }
    },
    {
      "type": "Feature",
      "geometry": {
        "type": "Polygon",
        "coordinates": [
          [
            [
              -76.30805554692597,
              39.54837267239452
            ],
            [
              -76.30432756531735,
              39.54837267239452
            ],
            [
              -76.30432756531735,
              39.55124724520106
            ],
            [
              -76.30805554692597,
              39.55124724520106
            ],
            [
              -76.30805554692597,
              39.54837267239452
            ]
          ]
        ]
      },
      "properties": {
        "cell_id": "dr18zxgd2fg"
      }
    },
    {
      "type": "Feature",
      "geometry": {
        "type": "Polygon",
        "coordinates": [
          [
            [
              -76.33731346374906,
              39.55124724520107
            ],
            [
              -76.33358532771351,
              39.55124724520107
            ],
            [
              -76.33358532771351,
              39.55412181800761
            ],
            [
              -76.33731346374906,
              39.55412181800761
            ],
            [
              -76.33731346374906,
              39.55124724520107
            ]
          ]
        ]
      },
      "properties": {
        "cell_id": "dr19nbq5p4g"
      }
    },
    {
      "type": "Feature",
      "geometry": {
        "type": "Polygon",
        "coordinates": [
          [
            [
              -76.33544939573129,
              39.55268453160434
            ],
            [
              -76.33172125969574,
              39.55268453160434
            ],
            [
              -76.33172125969574,
              39.55555910441088
            ],
            [
              -76.33544939573129,
              39.55555910441088
            ],
            [
              -76.33544939573129,
              39.55268453160434
            ]
          ]
        ]
      },
      "properties": {
        "cell_id": "dr19nbxe6w9"
      }
    },
    {
      "type": "Feature",
      "geometry": {
        "type": "Polygon",
        "coordinates": [
          [
            [
              -76.33358532771352,
              39.55124724520107
            ],
            [
              -76.32985719167797,
              39.55124724520107
            ],
            [
              -76.32985719167797,
              39.55412181800761
            ],
            [
              -76.33358532771352,
              39.55412181800761
            ],
            [
              -76.33358532771352,
              39.55124724520107
            ]
          ]
        ]
      },
      "properties": {
        "cell_id": "dr19p02gjfz"
      }
    },
    {
      "type": "Feature",
      "geometry": {
        "type": "Polygon",
        "coordinates": [
          [
            [
              -76.33172125969575,
              39.55268453160434
            ],
            [
              -76.3279931236602,
              39.55268453160434
            ],
            [
              -76.3279931236602,
              39.55555910441088
            ],
            [
              -76.33172125969575,
              39.55555910441088
            ],
            [
              -76.33172125969575,
              39.55268453160434
            ]
          ]
        ]
      },
      "properties": {
        "cell_id": "dr19p0d73qt"
      }
    },
    {
      "type": "Feature",
      "geometry": {
        "type": "Polygon",
        "coordinates": [
          [
            [
              -76.32985719167797,
              39.55124724520107
            ],
            [
              -76.32612905564243,
              39.55124724520107
            ],
            [
              -76.32612905564243,
              39.55412181800761
            ],
            [
              -76.32985719167797,
              39.55412181800761
            ],
            [
              -76.32985719167797,
              39.55124724520107
            ]
          ]
        ]
      },
      "properties": {
        "cell_id": "dr19p07ehfg"
      }
    },
    {
      "type": "Feature",
      "geometry": {
        "type": "Polygon",
        "coordinates": [
          [
            [
              -76.3279931236602,
              39.55268453160434
            ],
            [
              -76.32426498762466,
              39.55268453160434
            ],
            [
              -76.32426498762466,
              39.55555910441088
            ],
            [
              -76.3279931236602,
              39.55555910441088
            ],
            [
              -76.3279931236602,
              39.55268453160434
            ]
          ]
        ]
      },
      "properties": {
        "cell_id": "dr19p0t52q9"
      }
    },
    {
      "type": "Feature",
      "geometry": {
        "type": "Polygon",
        "coordinates": [
          [
            [
              -76.32612905564244,
              39.55124724520107
            ],
            [
              -76.32240091960689,
              39.55124724520107
            ],
            [
              -76.32240091960689,
              39.55412181800761
            ],
            [
              -76.32612905564244,
              39.55412181800761
            ],
            [
              -76.32612905564244,
              39.55124724520107
            ]
          ]
        ]
      },
      "properties": {
        "cell_id": "dr19p0q75dz"
      }
    },
    {
      "type": "Feature",
      "geometry": {
        "type": "Polygon",
        "coordinates": [
          [
            [
              -76.32426498762467,
              39.55268453160434
            ],
            [
              -76.32053685158913,
              39.55268453160434
            ],
            [
              -76.32053685158913,
              39.55555910441088
            ],
            [
              -76.32426498762467,
              39.55555910441088
            ],
            [
              -76.32426498762467,
              39.55268453160434
            ]
          ]
        ]
      },
      "properties": {
        "cell_id": "dr19p0xernt"
      }
    },
    {
      "type": "Feature",
      "geometry": {
        "type": "Polygon",
        "coordinates": [
          [
            [
              -76.32240091960689,
              39.55124724520107
            ],
            [
              -76.31867278357134,
              39.55124724520107
            ],
            [
              -76.31867278357134,
              39.55412181800761
            ],
            [
              -76.32240091960689,
              39.55412181800761
            ],
            [
              -76.32240091960689,
              39.55124724520107
            ]
          ]
        ]
      },
      "properties": {
        "cell_id": "dr19p2354dg"
      }
    },
    {
      "type": "Feature",
      "geometry": {
        "type": "Polygon",
        "coordinates": [
          [
            [
              -76.32053685158913,
              39.55268453160434
            ],
            [
              -76.31680871555358,
              39.55268453160434
            ],
            [
              -76.31680871555358,
              39.55555910441088
            ],
            [
              -76.32053685158913,
              39.55555910441088
            ],
            [
              -76.32053685158913,
              39.55268453160434
            ]
          ]
        ]
      },
      "properties": {
        "cell_id": "dr19p2d7qn8"
      }
    },
    {
      "type": "Feature",
      "geometry": {
        "type": "Polygon",
        "coordinates": [
          [
            [
              -76.31867278357134,
              39.55124724520107
            ],
            [
              -76.3149446475358,
              39.55124724520107
            ],
            [
              -76.3149446475358,
              39.55412181800761
            ],
            [
              -76.31867278357134,
              39.55412181800761
            ],
            [
              -76.31867278357134,
              39.55124724520107
            ]
          ]
        ]
      },
      "properties": {
        "cell_id": "dr19p27g16y"
      }
    },
    {
      "type": "Feature",
      "geometry": {
        "type": "Polygon",
        "coordinates": [
          [
            [
              -76.31680871555358,
              39.55268453160434
            ],
            [
              -76.31308057951803,
              39.55268453160434
            ],
            [
              -76.31308057951803,
              39.55555910441088
            ],
            [
              -76.31680871555358,
              39.55555910441088
            ],
            [
              -76.31680871555358,
              39.55268453160434
            ]
          ]
        ]
      },
      "properties": {
        "cell_id": "dr19p2t5kys"
      }
    },
    {
      "type": "Feature",
      "geometry": {
        "type": "Polygon",
        "coordinates": [
          [
            [
              -76.31494464753581,
              39.55124724520107
            ],
            [
              -76.31121651150026,
              39.55124724520107
            ],
            [
              -76.31121651150026,
              39.55412181800761
            ],
            [
              -76.31494464753581,
              39.55412181800761
            ],
            [
              -76.31494464753581,
              39.55124724520107
            ]
          ]
        ]
      },
      "properties": {
        "cell_id": "dr19p2qe06f"
      }
    },
    {
      "type": "Feature",
      "geometry": {
        "type": "Polygon",
        "coordinates": [
          [
            [
              -76.31308057951804,
              39.55268453160434
            ],
            [
              -76.3093524434825,
              39.55268453160434
            ],
            [
              -76.3093524434825,
              39.55555910441088
            ],
            [
              -76.31308057951804,
              39.55555910441088
            ],
            [
              -76.31308057951804,
              39.55268453160434
            ]
          ]
        ]
      },
      "properties": {
        "cell_id": "dr19p2xg7y8"
      }
    },
    {
      "type": "Feature",
      "geometry": {
        "type": "Polygon",
        "coordinates": [
          [
            [
              -76.31121651150026,
              39.55124724520107
            ],
            [
              -76.30748837546471,
              39.55124724520107
            ],
            [
              -76.30748837546471,
              39.55412181800761
            ],
            [
              -76.31121651150026,
              39.55412181800761
            ],
            [
              -76.31121651150026,
              39.55124724520107
            ]
          ]
        ]
      },
      "properties": {
        "cell_id": "dr19p835p4y"
      }
    },
    {
      "type": "Feature",
      "geometry": {
        "type": "Polygon",
        "coordinates": [
          [
            [
              -76.3093524434825,
              39.55268453160434
            ],
            [
              -76.30562430744695,
              39.55268453160434
            ],
            [
              -76.30562430744695,
              39.55555910441088
            ],
            [
              -76.3093524434825,
              39.55555910441088
            ],
            [
              -76.3093524434825,
              39.55268453160434
            ]
          ]
        ]
      },
      "properties": {
        "cell_id": "dr19p8de6ws"
      }
    },
    {
      "type": "Feature",
      "geometry": {
        "type": "Polygon",
        "coordinates": [
          [
            [
              -76.30748837546473,
              39.55124724520107
            ],
            [
              -76.30376023942918,
              39.55124724520107
            ],
            [
              -76.30376023942918,
              39.55412181800761
            ],
            [
              -76.30748837546473,
              39.55412181800761
            ],
            [
              -76.30748837546473,
              39.55124724520107
            ]
          ]
        ]
      },
      "properties": {
        "cell_id": "dr19p87gn4f"
      }
    },
    {
      "type": "Feature",
      "geometry": {
        "type": "Polygon",
        "coordinates": [
          [
            [
              -76.3404757712901,
              39.554121818007616
            ],
            [
              -76.33674748081485,
              39.554121818007616
            ],
            [
              -76.33674748081485,
              39.556996390814156
            ],
            [
              -76.3404757712901,
              39.556996390814156
            ],
            [
              -76.3404757712901,
              39.554121818007616
            ]
          ]
        ]
      },
      "properties": {
        "cell_id": "dr19nbggv6t"
      }
    },
    {
      "type": "Feature",
      "geometry": {
        "type": "Polygon",
        "coordinates": [
          [
            [
              -76.33861162605247,
              39.55555910441089
            ],
            [
              -76.33488333557722,
              39.55555910441089
            ],
            [
              -76.33488333557722,
              39.55843367721743
            ],
            [
              -76.33861162605247,
              39.55843367721743
            ],
            [
              -76.33861162605247,
              39.55555910441089
            ]
          ]
        ]
      },
      "properties": {
        "cell_id": "dr19ncjk0ye"
      }
    },
    {
      "type": "Feature",
      "geometry": {
        "type": "Polygon",
        "coordinates": [
          [
            [
              -76.33674748081485,
              39.554121818007616
            ],
            [
              -76.3330191903396,
              39.554121818007616
            ],
            [
              -76.3330191903396,
              39.556996390814156
            ],
            [
              -76.33674748081485,
              39.556996390814156
            ],
            [
              -76.33674748081485,
              39.554121818007616
            ]
          ]
        ]
      },
      "properties": {
        "cell_id": "dr19nbyeu69"
      }
    },
    {
      "type": "Feature",
      "geometry": {
        "type": "Polygon",
        "coordinates": [
          [
            [
              -76.33488333557722,
              39.55555910441089
            ],
            [
              -76.33115504510197,
              39.55555910441089
            ],
            [
              -76.33115504510197,
              39.55843367721743
            ],
            [
              -76.33488333557722,
              39.55843367721743
            ],
            [
              -76.33488333557722,
              39.55555910441089
            ]
          ]
        ]
      },
      "properties": {
        "cell_id": "dr19ncpupwx"
      }
    },
    {
      "type": "Feature",
      "geometry": {
        "type": "Polygon",
        "coordinates": [
          [
            [
              -76.3330191903396,
              39.554121818007616
            ],
            [
              -76.32929089986435,
              39.554121818007616
            ],
            [
              -76.32929089986435,
              39.556996390814156
            ],
            [
              -76.3330191903396,
              39.556996390814156
            ],
            [
              -76.3330191903396,
              39.554121818007616
            ]
          ]
        ]
      },
      "properties": {
        "cell_id": "dr19p0c7g4t"
      }
    },
    {
      "type": "Feature",
      "geometry": {
        "type": "Polygon",
        "coordinates": [
          [
            [
              -76.33115504510197,
              39.55555910441089
            ],
            [
              -76.32742675462671,
              39.55555910441089
            ],
            [
              -76.32742675462671,
              39.55843367721743
            ],
            [
              -76.33115504510197,
              39.55843367721743
            ],
            [
              -76.33115504510197,
              39.55555910441089
            ]
          ]
        ]
      },
      "properties": {
        "cell_id": "dr19p14snwe"
      }
    },
    {
      "type": "Feature",
      "geometry": {
        "type": "Polygon",
        "coordinates": [
          [
            [
              -76.32929089986433,
              39.554121818007616
            ],
            [
              -76.32556260938908,
              39.554121818007616
            ],
            [
              -76.32556260938908,
              39.556996390814156
            ],
            [
              -76.32929089986433,
              39.556996390814156
            ],
            [
              -76.32929089986433,
              39.554121818007616
            ]
          ]
        ]
      },
      "properties": {
        "cell_id": "dr19p0u5f49"
      }
    },
    {
      "type": "Feature",
      "geometry": {
        "type": "Polygon",
        "coordinates": [
          [
            [
              -76.3274267546267,
              39.55555910441089
            ],
            [
              -76.32369846415145,
              39.55555910441089
            ],
            [
              -76.32369846415145,
              39.55843367721743
            ],
            [
              -76.3274267546267,
              39.55843367721743
            ],
            [
              -76.3274267546267,
              39.55555910441089
            ]
          ]
        ]
      },
      "properties": {
        "cell_id": "dr19p1jkjqx"
      }
    },
    {
      "type": "Feature",
      "geometry": {
        "type": "Polygon",
        "coordinates": [
          [
            [
              -76.32556260938908,
              39.554121818007616
            ],
            [
              -76.32183431891383,
              39.554121818007616
            ],
            [
              -76.32183431891383,
              39.556996390814156
            ],
            [
              -76.32556260938908,
              39.556996390814156
            ],
            [
              -76.32556260938908,
              39.554121818007616
            ]
          ]
        ]
      },
      "properties": {
        "cell_id": "dr19p0ygbft"
      }
    },
    {
      "type": "Feature",
      "geometry": {
        "type": "Polygon",
        "coordinates": [
          [
            [
              -76.32369846415145,
              39.55555910441089
            ],
            [
              -76.3199701736762,
              39.55555910441089
            ],
            [
              -76.3199701736762,
              39.55843367721743
            ],
            [
              -76.32369846415145,
              39.55843367721743
            ],
            [
              -76.32369846415145,
              39.55555910441089
            ]
          ]
        ]
      },
      "properties": {
        "cell_id": "dr19p30hhqe"
      }
    },
    {
      "type": "Feature",
      "geometry": {
        "type": "Polygon",
        "coordinates": [
          [
            [
              -76.32183431891383,
              39.554121818007616
            ],
            [
              -76.31810602843858,
              39.554121818007616
            ],
            [
              -76.31810602843858,
              39.556996390814156
            ],
            [
              -76.32183431891383,
              39.556996390814156
            ],
            [
              -76.32183431891383,
              39.554121818007616
            ]
          ]
        ]
      },
      "properties": {
        "cell_id": "dr19p2c7zf9"
      }
    },
    {
      "type": "Feature",
      "geometry": {
        "type": "Polygon",
        "coordinates": [
          [
            [
              -76.3199701736762,
              39.55555910441089
            ],
            [
              -76.31624188320095,
              39.55555910441089
            ],
            [
              -76.31624188320095,
              39.55843367721743
            ],
            [
              -76.3199701736762,
              39.55843367721743
            ],
            [
              -76.3199701736762,
              39.55555910441089
            ]
          ]
        ]
      },
      "properties": {
        "cell_id": "dr19p34u5nx"
      }
    },
    {
      "type": "Feature",
      "geometry": {
        "type": "Polygon",
        "coordinates": [
          [
            [
              -76.31810602843858,
              39.554121818007616
            ],
            [
              -76.31437773796333,
              39.554121818007616
            ],
            [
              -76.31437773796333,
              39.556996390814156
            ],
            [
              -76.31810602843858,
              39.556996390814156
            ],
            [
              -76.31810602843858,
              39.554121818007616
            ]
          ]
        ]
      },
      "properties": {
        "cell_id": "dr19p2u5ydt"
      }
    },
    {
      "type": "Feature",
      "geometry": {
        "type": "Polygon",
        "coordinates": [
          [
            [
              -76.31624188320095,
              39.55555910441089
            ],
            [
              -76.3125135927257,
              39.55555910441089
            ],
            [
              -76.3125135927257,
              39.55843367721743
            ],
            [
              -76.31624188320095,
              39.55843367721743
            ],
            [
              -76.31624188320095,
              39.55555910441089
            ]
          ]
        ]
      },
      "properties": {
        "cell_id": "dr19p3js4ne"
      }
    },
    {
      "type": "Feature",
      "geometry": {
        "type": "Polygon",
        "coordinates": [
          [
            [
              -76.31437773796333,
              39.554121818007616
            ],
            [
              -76.31064944748807,
              39.554121818007616
            ],
            [
              -76.31064944748807,
              39.556996390814156
            ],
            [
              -76.31437773796333,
              39.556996390814156
            ],
            [
              -76.31437773796333,
              39.554121818007616
            ]
          ]
        ]
      },
      "properties": {
        "cell_id": "dr19p2ygvd9"
      }
    },
    {
      "type": "Feature",
      "geometry": {
        "type": "Polygon",
        "coordinates": [
          [
            [
              -76.3125135927257,
              39.55555910441089
            ],
            [
              -76.30878530225044,
              39.55555910441089
            ],
            [
              -76.30878530225044,
              39.55843367721743
            ],
            [
              -76.3125135927257,
              39.55843367721743
            ],
            [
              -76.3125135927257,
              39.55555910441089
            ]
          ]
        ]
      },
      "properties": {
        "cell_id": "dr19p90k0yx"
      }
    },
    {
      "type": "Feature",
      "geometry": {
        "type": "Polygon",
        "coordinates": [
          [
            [
              -76.31064944748807,
              39.554121818007616
            ],
            [
              -76.30692115701282,
              39.554121818007616
            ],
            [
              -76.30692115701282,
              39.556996390814156
            ],
            [
              -76.31064944748807,
              39.556996390814156
            ],
            [
              -76.31064944748807,
              39.554121818007616
            ]
          ]
        ]
      },
      "properties": {
        "cell_id": "dr19p8ceu6t"
      }
    },
    {
      "type": "Feature",
      "geometry": {
        "type": "Polygon",
        "coordinates": [
          [
            [
              -76.30878530225044,
              39.55555910441089
            ],
            [
              -76.30505701177519,
              39.55555910441089
            ],
            [
              -76.30505701177519,
              39.55843367721743
            ],
            [
              -76.30878530225044,
              39.55843367721743
            ],
            [
              -76.30878530225044,
              39.55555910441089
            ]
          ]
        ]
      },
      "properties": {
        "cell_id": "dr19p94upye"
      }
    },
    {
      "type": "Feature",
      "geometry": {
        "type": "Polygon",
        "coordinates": [
          [
            [
              -76.30692115701282,
              39.554121818007616
            ],
            [
              -76.30319286653757,
              39.554121818007616
            ],
            [
              -76.30319286653757,
              39.556996390814156
            ],
            [
              -76.30692115701282,
              39.556996390814156
            ],
            [
              -76.30692115701282,
              39.554121818007616
            ]
          ]
        ]
      },
      "properties": {
        "cell_id": "dr19p8u7g69"
      }
    },
    {
      "type": "Feature",
      "geometry": {
        "type": "Polygon",
        "coordinates": [
          [
            [
              -76.33990989591423,
              39.556996390814135
            ],
            [
              -76.33618145098647,
              39.556996390814135
            ],
            [
              -76.33618145098647,
              39.559870963620675
            ],
            [
              -76.33990989591423,
              39.559870963620675
            ],
            [
              -76.33990989591423,
              39.556996390814135
            ]
          ]
        ]
      },
      "properties": {
        "cell_id": "dr19nckkdde"
      }
    },
    {
      "type": "Feature",
      "geometry": {
        "type": "Polygon",
        "coordinates": [
          [
            [
              -76.33804567345035,
              39.55843367721741
            ],
            [
              -76.3343172285226,
              39.55843367721741
            ],
            [
              -76.3343172285226,
              39.56130825002395
            ],
            [
              -76.33804567345035,
              39.56130825002395
            ],
            [
              -76.33804567345035,
              39.55843367721741
            ]
          ]
        ]
      },
      "properties": {
        "cell_id": "dr19nctsyn3"
      }
    },
    {
      "type": "Feature",
      "geometry": {
        "type": "Polygon",
        "coordinates": [
          [
            [
              -76.33618145098647,
              39.556996390814135
            ],
            [
              -76.33245300605871,
              39.556996390814135
            ],
            [
              -76.33245300605871,
              39.559870963620675
            ],
            [
              -76.33618145098647,
              39.559870963620675
            ],
            [
              -76.33618145098647,
              39.556996390814135
            ]
          ]
        ]
      },
      "properties": {
        "cell_id": "dr19ncrh96x"
      }
    },
    {
      "type": "Feature",
      "geometry": {
        "type": "Polygon",
        "coordinates": [
          [
            [
              -76.3343172285226,
              39.55843367721741
            ],
            [
              -76.33058878359483,
              39.55843367721741
            ],
            [
              -76.33058878359483,
              39.56130825002395
            ],
            [
              -76.3343172285226,
              39.56130825002395
            ],
            [
              -76.3343172285226,
              39.55843367721741
            ]
          ]
        ]
      },
      "properties": {
        "cell_id": "dr19p18kuym"
      }
    },
    {
      "type": "Feature",
      "geometry": {
        "type": "Polygon",
        "coordinates": [
          [
            [
              -76.33245300605871,
              39.556996390814135
            ],
            [
              -76.32872456113095,
              39.556996390814135
            ],
            [
              -76.32872456113095,
              39.559870963620675
            ],
            [
              -76.33245300605871,
              39.559870963620675
            ],
            [
              -76.33245300605871,
              39.556996390814135
            ]
          ]
        ]
      },
      "properties": {
        "cell_id": "dr19p13u86e"
      }
    },
    {
      "type": "Feature",
      "geometry": {
        "type": "Polygon",
        "coordinates": [
          [
            [
              -76.33058878359483,
              39.55843367721741
            ],
            [
              -76.32686033866707,
              39.55843367721741
            ],
            [
              -76.32686033866707,
              39.56130825002395
            ],
            [
              -76.33058878359483,
              39.56130825002395
            ],
            [
              -76.33058878359483,
              39.55843367721741
            ]
          ]
        ]
      },
      "properties": {
        "cell_id": "dr19p1ehgy3"
      }
    },
    {
      "type": "Feature",
      "geometry": {
        "type": "Polygon",
        "coordinates": [
          [
            [
              -76.32872456113095,
              39.556996390814135
            ],
            [
              -76.3249961162032,
              39.556996390814135
            ],
            [
              -76.3249961162032,
              39.559870963620675
            ],
            [
              -76.32872456113095,
              39.559870963620675
            ],
            [
              -76.32872456113095,
              39.556996390814135
            ]
          ]
        ]
      },
      "properties": {
        "cell_id": "dr19p1kkx4x"
      }
    },
    {
      "type": "Feature",
      "geometry": {
        "type": "Polygon",
        "coordinates": [
          [
            [
              -76.32686033866707,
              39.55843367721741
            ],
            [
              -76.32313189373932,
              39.55843367721741
            ],
            [
              -76.32313189373932,
              39.56130825002395
            ],
            [
              -76.32686033866707,
              39.56130825002395
            ],
            [
              -76.32686033866707,
              39.55843367721741
            ]
          ]
        ]
      },
      "properties": {
        "cell_id": "dr19p1tufwm"
      }
    },
    {
      "type": "Feature",
      "geometry": {
        "type": "Polygon",
        "coordinates": [
          [
            [
              -76.3249961162032,
              39.556996390814135
            ],
            [
              -76.32126767127544,
              39.556996390814135
            ],
            [
              -76.32126767127544,
              39.559870963620675
            ],
            [
              -76.3249961162032,
              39.559870963620675
            ],
            [
              -76.3249961162032,
              39.556996390814135
            ]
          ]
        ]
      },
      "properties": {
        "cell_id": "dr19p1rhw4s"
      }
    },
    {
      "type": "Feature",
      "geometry": {
        "type": "Polygon",
        "coordinates": [
          [
            [
              -76.32313189373932,
              39.55843367721741
            ],
            [
              -76.31940344881156,
              39.55843367721741
            ],
            [
              -76.31940344881156,
              39.56130825002395
            ],
            [
              -76.32313189373932,
              39.56130825002395
            ],
            [
              -76.32313189373932,
              39.55843367721741
            ]
          ]
        ]
      },
      "properties": {
        "cell_id": "dr19p38scw6"
      }
    },
    {
      "type": "Feature",
      "geometry": {
        "type": "Polygon",
        "coordinates": [
          [
            [
              -76.32126767127542,
              39.556996390814135
            ],
            [
              -76.31753922634766,
              39.556996390814135
            ],
            [
              -76.31753922634766,
              39.559870963620675
            ],
            [
              -76.32126767127542,
              39.559870963620675
            ],
            [
              -76.32126767127542,
              39.556996390814135
            ]
          ]
        ]
      },
      "properties": {
        "cell_id": "dr19p33ut48"
      }
    },
    {
      "type": "Feature",
      "geometry": {
        "type": "Polygon",
        "coordinates": [
          [
            [
              -76.31940344881154,
              39.55843367721741
            ],
            [
              -76.31567500388378,
              39.55843367721741
            ],
            [
              -76.31567500388378,
              39.56130825002395
            ],
            [
              -76.31940344881154,
              39.56130825002395
            ],
            [
              -76.31940344881154,
              39.55843367721741
            ]
          ]
        ]
      },
      "properties": {
        "cell_id": "dr19p3ekbqq"
      }
    },
    {
      "type": "Feature",
      "geometry": {
        "type": "Polygon",
        "coordinates": [
          [
            [
              -76.31753922634766,
              39.556996390814135
            ],
            [
              -76.3138107814199,
              39.556996390814135
            ],
            [
              -76.3138107814199,
              39.559870963620675
            ],
            [
              -76.31753922634766,
              39.559870963620675
            ],
            [
              -76.31753922634766,
              39.556996390814135
            ]
          ]
        ]
      },
      "properties": {
        "cell_id": "dr19p3ksefs"
      }
    },
    {
      "type": "Feature",
      "geometry": {
        "type": "Polygon",
        "coordinates": [
          [
            [
              -76.31567500388378,
              39.55843367721741
            ],
            [
              -76.31194655895602,
              39.55843367721741
            ],
            [
              -76.31194655895602,
              39.56130825002395
            ],
            [
              -76.31567500388378,
              39.56130825002395
            ],
            [
              -76.31567500388378,
              39.55843367721741
            ]
          ]
        ]
      },
      "properties": {
        "cell_id": "dr19p3tuzq6"
      }
    },
    {
      "type": "Feature",
      "geometry": {
        "type": "Polygon",
        "coordinates": [
          [
            [
              -76.3138107814199,
              39.556996390814135
            ],
            [
              -76.31008233649214,
              39.556996390814135
            ],
            [
              -76.31008233649214,
              39.559870963620675
            ],
            [
              -76.3138107814199,
              39.559870963620675
            ],
            [
              -76.3138107814199,
              39.556996390814135
            ]
          ]
        ]
      },
      "properties": {
        "cell_id": "dr19p3rkdf8"
      }
    },
    {
      "type": "Feature",
      "geometry": {
        "type": "Polygon",
        "coordinates": [
          [
            [
              -76.31194655895602,
              39.55843367721741
            ],
            [
              -76.30821811402826,
              39.55843367721741
            ],
            [
              -76.30821811402826,
              39.56130825002395
            ],
            [
              -76.31194655895602,
              39.56130825002395
            ],
            [
              -76.31194655895602,
              39.55843367721741
            ]
          ]
        ]
      },
      "properties": {
        "cell_id": "dr19p98synq"
      }
    },
    {
      "type": "Feature",
      "geometry": {
        "type": "Polygon",
        "coordinates": [
          [
            [
              -76.31008233649214,
              39.556996390814135
            ],
            [
              -76.30635389156438,
              39.556996390814135
            ],
            [
              -76.30635389156438,
              39.559870963620675
            ],
            [
              -76.31008233649214,
              39.559870963620675
            ],
            [
              -76.31008233649214,
              39.556996390814135
            ]
          ]
        ]
      },
      "properties": {
        "cell_id": "dr19p96h9ds"
      }
    },
    {
      "type": "Feature",
      "geometry": {
        "type": "Polygon",
        "coordinates": [
          [
            [
              -76.30821811402826,
              39.55843367721741
            ],
            [
              -76.3044896691005,
              39.55843367721741
            ],
            [
              -76.3044896691005,
              39.56130825002395
            ],
            [
              -76.30821811402826,
              39.56130825002395
            ],
            [
              -76.30821811402826,
              39.55843367721741
            ]
          ]
        ]
      },
      "properties": {
        "cell_id": "dr19p9ekvn6"
      }
    },
    {
      "type": "Feature",
      "geometry": {
        "type": "Polygon",
        "coordinates": [
          [
            [
              -76.30635389156438,
              39.556996390814135
            ],
            [
              -76.30262544663663,
              39.556996390814135
            ],
            [
              -76.30262544663663,
              39.559870963620675
            ],
            [
              -76.30635389156438,
              39.559870963620675
            ],
            [
              -76.30635389156438,
              39.556996390814135
            ]
          ]
        ]
      },
      "properties": {
        "cell_id": "dr19p9ku8d8"
      }
    },
    {
      "type": "Feature",
      "geometry": {
        "type": "Polygon",
        "coordinates": [
          [
            [
              -76.33934397365122,
              39.55987096362068
            ],
            [
              -76.33561537425815,
              39.55987096362068
            ],
            [
              -76.33561537425815,
              39.56274553642722
            ],
            [
              -76.33934397365122,
              39.56274553642722
            ],
            [
              -76.33934397365122,
              39.55987096362068
            ]
          ]
        ]
      },
      "properties": {
        "cell_id": "dr19ncutrf3"
      }
    },
    {
      "type": "Feature",
      "geometry": {
        "type": "Polygon",
        "coordinates": [
          [
            [
              -76.33747967395469,
              39.561308250023956
            ],
            [
              -76.33375107456162,
              39.561308250023956
            ],
            [
              -76.33375107456162,
              39.564182822830496
            ],
            [
              -76.33747967395469,
              39.564182822830496
            ],
            [
              -76.33747967395469,
              39.561308250023956
            ]
          ]
        ]
      },
      "properties": {
        "cell_id": "dr19nfnjenr"
      }
    },
    {
      "type": "Feature",
      "geometry": {
        "type": "Polygon",
        "coordinates": [
          [
            [
              -76.33561537425815,
              39.55987096362068
            ],
            [
              -76.33188677486508,
              39.55987096362068
            ],
            [
              -76.33188677486508,
              39.56274553642722
            ],
            [
              -76.33561537425815,
              39.56274553642722
            ],
            [
              -76.33561537425815,
              39.55987096362068
            ]
          ]
        ]
      },
      "properties": {
        "cell_id": "dr19nczmqdm"
      }
    },
    {
      "type": "Feature",
      "geometry": {
        "type": "Polygon",
        "coordinates": [
          [
            [
              -76.33375107456162,
              39.561308250023956
            ],
            [
              -76.33002247516855,
              39.561308250023956
            ],
            [
              -76.33002247516855,
              39.564182822830496
            ],
            [
              -76.33375107456162,
              39.564182822830496
            ],
            [
              -76.33375107456162,
              39.561308250023956
            ]
          ]
        ]
      },
      "properties": {
        "cell_id": "dr19p40vdn7"
      }
    },
    {
      "type": "Feature",
      "geometry": {
        "type": "Polygon",
        "coordinates": [
          [
            [
              -76.33188677486508,
              39.55987096362068
            ],
            [
              -76.32815817547201,
              39.55987096362068
            ],
            [
              -76.32815817547201,
              39.56274553642722
            ],
            [
              -76.33188677486508,
              39.56274553642722
            ],
            [
              -76.33188677486508,
              39.55987096362068
            ]
          ]
        ]
      },
      "properties": {
        "cell_id": "dr19p1fjmd6"
      }
    },
    {
      "type": "Feature",
      "geometry": {
        "type": "Polygon",
        "coordinates": [
          [
            [
              -76.33002247516855,
              39.561308250023956
            ],
            [
              -76.32629387577548,
              39.561308250023956
            ],
            [
              -76.32629387577548,
              39.564182822830496
            ],
            [
              -76.33002247516855,
              39.564182822830496
            ],
            [
              -76.33002247516855,
              39.561308250023956
            ]
          ]
        ]
      },
      "properties": {
        "cell_id": "dr19p45t9n2"
      }
    },
    {
      "type": "Feature",
      "geometry": {
        "type": "Polygon",
        "coordinates": [
          [
            [
              -76.32815817547203,
              39.55987096362068
            ],
            [
              -76.32442957607896,
              39.55987096362068
            ],
            [
              -76.32442957607896,
              39.56274553642722
            ],
            [
              -76.32815817547203,
              39.56274553642722
            ],
            [
              -76.32815817547203,
              39.55987096362068
            ]
          ]
        ]
      },
      "properties": {
        "cell_id": "dr19p1uvk6q"
      }
    },
    {
      "type": "Feature",
      "geometry": {
        "type": "Polygon",
        "coordinates": [
          [
            [
              -76.32629387577549,
              39.561308250023956
            ],
            [
              -76.32256527638242,
              39.561308250023956
            ],
            [
              -76.32256527638242,
              39.564182822830496
            ],
            [
              -76.32629387577549,
              39.564182822830496
            ],
            [
              -76.32629387577549,
              39.561308250023956
            ]
          ]
        ]
      },
      "properties": {
        "cell_id": "dr19p4njxyk"
      }
    },
    {
      "type": "Feature",
      "geometry": {
        "type": "Polygon",
        "coordinates": [
          [
            [
              -76.32442957607896,
              39.55987096362068
            ],
            [
              -76.32070097668588,
              39.55987096362068
            ],
            [
              -76.32070097668588,
              39.56274553642722
            ],
            [
              -76.32442957607896,
              39.56274553642722
            ],
            [
              -76.32442957607896,
              39.55987096362068
            ]
          ]
        ]
      },
      "properties": {
        "cell_id": "dr19p1zt766"
      }
    },
    {
      "type": "Feature",
      "geometry": {
        "type": "Polygon",
        "coordinates": [
          [
            [
              -76.32256527638242,
              39.561308250023956
            ],
            [
              -76.31883667698935,
              39.561308250023956
            ],
            [
              -76.31883667698935,
              39.564182822830496
            ],
            [
              -76.32256527638242,
              39.564182822830496
            ],
            [
              -76.32256527638242,
              39.561308250023956
            ]
          ]
        ]
      },
      "properties": {
        "cell_id": "dr19p60vwy2"
      }
    },
    {
      "type": "Feature",
      "geometry": {
        "type": "Polygon",
        "coordinates": [
          [
            [
              -76.32070097668588,
              39.55987096362068
            ],
            [
              -76.31697237729281,
              39.55987096362068
            ],
            [
              -76.31697237729281,
              39.56274553642722
            ],
            [
              -76.32070097668588,
              39.56274553642722
            ],
            [
              -76.32070097668588,
              39.55987096362068
            ]
          ]
        ]
      },
      "properties": {
        "cell_id": "dr19p3fm64q"
      }
    },
    {
      "type": "Feature",
      "geometry": {
        "type": "Polygon",
        "coordinates": [
          [
            [
              -76.31883667698935,
              39.561308250023956
            ],
            [
              -76.31510807759628,
              39.561308250023956
            ],
            [
              -76.31510807759628,
              39.564182822830496
            ],
            [
              -76.31883667698935,
              39.564182822830496
            ],
            [
              -76.31883667698935,
              39.561308250023956
            ]
          ]
        ]
      },
      "properties": {
        "cell_id": "dr19p65ttwk"
      }
    },
    {
      "type": "Feature",
      "geometry": {
        "type": "Polygon",
        "coordinates": [
          [
            [
              -76.31697237729283,
              39.55987096362068
            ],
            [
              -76.31324377789976,
              39.55987096362068
            ],
            [
              -76.31324377789976,
              39.56274553642722
            ],
            [
              -76.31697237729283,
              39.56274553642722
            ],
            [
              -76.31697237729283,
              39.55987096362068
            ]
          ]
        ]
      },
      "properties": {
        "cell_id": "dr19p3vj347"
      }
    },
    {
      "type": "Feature",
      "geometry": {
        "type": "Polygon",
        "coordinates": [
          [
            [
              -76.31510807759629,
              39.561308250023956
            ],
            [
              -76.31137947820322,
              39.561308250023956
            ],
            [
              -76.31137947820322,
              39.564182822830496
            ],
            [
              -76.31510807759629,
              39.564182822830496
            ],
            [
              -76.31510807759629,
              39.561308250023956
            ]
          ]
        ]
      },
      "properties": {
        "cell_id": "dr19p6nmsw3"
      }
    },
    {
      "type": "Feature",
      "geometry": {
        "type": "Polygon",
        "coordinates": [
          [
            [
              -76.31324377789976,
              39.55987096362068
            ],
            [
              -76.30951517850669,
              39.55987096362068
            ],
            [
              -76.30951517850669,
              39.56274553642722
            ],
            [
              -76.31324377789976,
              39.56274553642722
            ],
            [
              -76.31324377789976,
              39.55987096362068
            ]
          ]
        ]
      },
      "properties": {
        "cell_id": "dr19p3ztrfr"
      }
    },
    {
      "type": "Feature",
      "geometry": {
        "type": "Polygon",
        "coordinates": [
          [
            [
              -76.31137947820322,
              39.561308250023956
            ],
            [
              -76.30765087881015,
              39.561308250023956
            ],
            [
              -76.30765087881015,
              39.564182822830496
            ],
            [
              -76.31137947820322,
              39.564182822830496
            ],
            [
              -76.31137947820322,
              39.561308250023956
            ]
          ]
        ]
      },
      "properties": {
        "cell_id": "dr19pd1jeqm"
      }
    },
    {
      "type": "Feature",
      "geometry": {
        "type": "Polygon",
        "coordinates": [
          [
            [
              -76.30951517850669,
              39.55987096362068
            ],
            [
              -76.30578657911362,
              39.55987096362068
            ],
            [
              -76.30578657911362,
              39.56274553642722
            ],
            [
              -76.30951517850669,
              39.56274553642722
            ],
            [
              -76.30951517850669,
              39.55987096362068
            ]
          ]
        ]
      },
      "properties": {
        "cell_id": "dr19p9fmqf7"
      }
    },
    {
      "type": "Feature",
      "geometry": {
        "type": "Polygon",
        "coordinates": [
          [
            [
              -76.30765087881015,
              39.561308250023956
            ],
            [
              -76.30392227941708,
              39.561308250023956
            ],
            [
              -76.30392227941708,
              39.564182822830496
            ],
            [
              -76.30765087881015,
              39.564182822830496
            ],
            [
              -76.30765087881015,
              39.561308250023956
            ]
          ]
        ]
      },
      "properties": {
        "cell_id": "dr19pd5vdq3"
      }
    },
    {
      "type": "Feature",
      "geometry": {
        "type": "Polygon",
        "coordinates": [
          [
            [
              -76.33877800449524,
              39.56274553642723
            ],
            [
              -76.33504925062407,
              39.56274553642723
            ],
            [
              -76.33504925062407,
              39.56562010923377
            ],
            [
              -76.33877800449524,
              39.56562010923377
            ],
            [
              -76.33877800449524,
              39.56274553642723
            ]
          ]
        ]
      },
      "properties": {
        "cell_id": "dr19nfmnhfp"
      }
    },
    {
      "type": "Feature",
      "geometry": {
        "type": "Polygon",
        "coordinates": [
          [
            [
              -76.33691362755965,
              39.5641828228305
            ],
            [
              -76.33318487368848,
              39.5641828228305
            ],
            [
              -76.33318487368848,
              39.56705739563704
            ],
            [
              -76.33691362755965,
              39.56705739563704
            ],
            [
              -76.33691362755965,
              39.5641828228305
            ]
          ]
        ]
      },
      "properties": {
        "cell_id": "dr19nfww2qj"
      }
    },
    {
      "type": "Feature",
      "geometry": {
        "type": "Polygon",
        "coordinates": [
          [
            [
              -76.33504925062407,
              39.56274553642723
            ],
            [
              -76.3313204967529,
              39.56274553642723
            ],
            [
              -76.3313204967529,
              39.56562010923377
            ],
            [
              -76.33504925062407,
              39.56562010923377
            ],
            [
              -76.33504925062407,
              39.56274553642723
            ]
          ]
        ]
      },
      "properties": {
        "cell_id": "dr19nfry5f5"
      }
    },
    {
      "type": "Feature",
      "geometry": {
        "type": "Polygon",
        "coordinates": [
          [
            [
              -76.33318487368848,
              39.5641828228305
            ],
            [
              -76.32945611981731,
              39.5641828228305
            ],
            [
              -76.32945611981731,
              39.56705739563704
            ],
            [
              -76.33318487368848,
              39.56705739563704
            ],
            [
              -76.33318487368848,
              39.5641828228305
            ]
          ]
        ]
      },
      "properties": {
        "cell_id": "dr19p49nrq4"
      }
    },
    {
      "type": "Feature",
      "geometry": {
        "type": "Polygon",
        "coordinates": [
          [
            [
              -76.3313204967529,
              39.56274553642723
            ],
            [
              -76.32759174288172,
              39.56274553642723
            ],
            [
              -76.32759174288172,
              39.56562010923377
            ],
            [
              -76.3313204967529,
              39.56562010923377
            ],
            [
              -76.3313204967529,
              39.56274553642723
            ]
          ]
        ]
      },
      "properties": {
        "cell_id": "dr19p46w4f0"
      }
    },
    {
      "type": "Feature",
      "geometry": {
        "type": "Polygon",
        "coordinates": [
          [
            [
              -76.32945611981731,
              39.5641828228305
            ],
            [
              -76.32572736594614,
              39.5641828228305
            ],
            [
              -76.32572736594614,
              39.56705739563704
            ],
            [
              -76.32945611981731,
              39.56705739563704
            ],
            [
              -76.32945611981731,
              39.5641828228305
            ]
          ]
        ]
      },
      "properties": {
        "cell_id": "dr19p4eyqnn"
      }
    },
    {
      "type": "Feature",
      "geometry": {
        "type": "Polygon",
        "coordinates": [
          [
            [
              -76.32759174288172,
              39.56274553642723
            ],
            [
              -76.32386298901055,
              39.56274553642723
            ],
            [
              -76.32386298901055,
              39.56562010923377
            ],
            [
              -76.32759174288172,
              39.56562010923377
            ],
            [
              -76.32759174288172,
              39.56274553642723
            ]
          ]
        ]
      },
      "properties": {
        "cell_id": "dr19p4mq1dh"
      }
    },
    {
      "type": "Feature",
      "geometry": {
        "type": "Polygon",
        "coordinates": [
          [
            [
              -76.32572736594614,
              39.5641828228305
            ],
            [
              -76.32199861207496,
              39.5641828228305
            ],
            [
              -76.32199861207496,
              39.56705739563704
            ],
            [
              -76.32572736594614,
              39.56705739563704
            ],
            [
              -76.32572736594614,
              39.5641828228305
            ]
          ]
        ]
      },
      "properties": {
        "cell_id": "dr19p4wwmn4"
      }
    },
    {
      "type": "Feature",
      "geometry": {
        "type": "Polygon",
        "coordinates": [
          [
            [
              -76.32386298901055,
              39.56274553642723
            ],
            [
              -76.32013423513938,
              39.56274553642723
            ],
            [
              -76.32013423513938,
              39.56562010923377
            ],
            [
              -76.32386298901055,
              39.56562010923377
            ],
            [
              -76.32386298901055,
              39.56274553642723
            ]
          ]
        ]
      },
      "properties": {
        "cell_id": "dr19p62n0d1"
      }
    },
    {
      "type": "Feature",
      "geometry": {
        "type": "Polygon",
        "coordinates": [
          [
            [
              -76.32199861207496,
              39.5641828228305
            ],
            [
              -76.31826985820379,
              39.5641828228305
            ],
            [
              -76.31826985820379,
              39.56705739563704
            ],
            [
              -76.32199861207496,
              39.56705739563704
            ],
            [
              -76.32199861207496,
              39.5641828228305
            ]
          ]
        ]
      },
      "properties": {
        "cell_id": "dr19p69q7yp"
      }
    },
    {
      "type": "Feature",
      "geometry": {
        "type": "Polygon",
        "coordinates": [
          [
            [
              -76.32013423513938,
              39.56274553642723
            ],
            [
              -76.3164054812682,
              39.56274553642723
            ],
            [
              -76.3164054812682,
              39.56562010923377
            ],
            [
              -76.32013423513938,
              39.56562010923377
            ],
            [
              -76.32013423513938,
              39.56274553642723
            ]
          ]
        ]
      },
      "properties": {
        "cell_id": "dr19p66wp6j"
      }
    },
    {
      "type": "Feature",
      "geometry": {
        "type": "Polygon",
        "coordinates": [
          [
            [
              -76.31826985820379,
              39.5641828228305
            ],
            [
              -76.31454110433262,
              39.5641828228305
            ],
            [
              -76.31454110433262,
              39.56705739563704
            ],
            [
              -76.31826985820379,
              39.56705739563704
            ],
            [
              -76.31826985820379,
              39.5641828228305
            ]
          ]
        ]
      },
      "properties": {
        "cell_id": "dr19p6sn6y5"
      }
    },
    {
      "type": "Feature",
      "geometry": {
        "type": "Polygon",
        "coordinates": [
          [
            [
              -76.3164054812682,
              39.56274553642723
            ],
            [
              -76.31267672739703,
              39.56274553642723
            ],
            [
              -76.31267672739703,
              39.56562010923377
            ],
            [
              -76.3164054812682,
              39.56562010923377
            ],
            [
              -76.3164054812682,
              39.56274553642723
            ]
          ]
        ]
      },
      "properties": {
        "cell_id": "dr19p6mqn61"
      }
    },
    {
      "type": "Feature",
      "geometry": {
        "type": "Polygon",
        "coordinates": [
          [
            [
              -76.31454110433262,
              39.5641828228305
            ],
            [
              -76.31081235046145,
              39.5641828228305
            ],
            [
              -76.31081235046145,
              39.56705739563704
            ],
            [
              -76.31454110433262,
              39.56705739563704
            ],
            [
              -76.31454110433262,
              39.5641828228305
            ]
          ]
        ]
      },
      "properties": {
        "cell_id": "dr19p6wy3wp"
      }
    },
    {
      "type": "Feature",
      "geometry": {
        "type": "Polygon",
        "coordinates": [
          [
            [
              -76.31267672739703,
              39.56274553642723
            ],
            [
              -76.30894797352586,
              39.56274553642723
            ],
            [
              -76.30894797352586,
              39.56562010923377
            ],
            [
              -76.31267672739703,
              39.56562010923377
            ],
            [
              -76.31267672739703,
              39.56274553642723
            ]
          ]
        ]
      },
      "properties": {
        "cell_id": "dr19pd2nj4n"
      }
    },
    {
      "type": "Feature",
      "geometry": {
        "type": "Polygon",
        "coordinates": [
          [
            [
              -76.31081235046145,
              39.5641828228305
            ],
            [
              -76.30708359659027,
              39.5641828228305
            ],
            [
              -76.30708359659027,
              39.56705739563704
            ],
            [
              -76.31081235046145,
              39.56705739563704
            ],
            [
              -76.31081235046145,
              39.5641828228305
            ]
          ]
        ]
      },
      "properties": {
        "cell_id": "dr19pd9w2wh"
      }
    },
    {
      "type": "Feature",
      "geometry": {
        "type": "Polygon",
        "coordinates": [
          [
            [
              -76.30894797352586,
              39.56274553642723
            ],
            [
              -76.30521921965469,
              39.56274553642723
            ],
            [
              -76.30521921965469,
              39.56562010923377
            ],
            [
              -76.30894797352586,
              39.56562010923377
            ],
            [
              -76.30894797352586,
              39.56274553642723
            ]
          ]
        ]
      },
      "properties": {
        "cell_id": "dr19pd6yh44"
      }
    },
    {
      "type": "Feature",
      "geometry": {
        "type": "Polygon",
        "coordinates": [
          [
            [
              -76.30708359659027,
              39.5641828228305
            ],
            [
              -76.3033548427191,
              39.5641828228305
            ],
            [
              -76.3033548427191,
              39.56705739563704
            ],
            [
              -76.30708359659027,
              39.56705739563704
            ],
            [
              -76.30708359659027,
              39.5641828228305
            ]
          ]
        ]
      },
      "properties": {
        "cell_id": "dr19pdsnrw0"
      }
    },
    {
      "type": "Feature",
      "geometry": {
        "type": "Polygon",
        "coordinates": [
          [
            [
              -76.33821198844039,
              39.56562010923378
            ],
            [
              -76.33448308007831,
              39.56562010923378
            ],
            [
              -76.33448308007831,
              39.56849468204032
            ],
            [
              -76.33821198844039,
              39.56849468204032
            ],
            [
              -76.33821198844039,
              39.56562010923378
            ]
          ]
        ]
      },
      "properties": {
        "cell_id": "dr19nfvwf4j"
      }
    },
    {
      "type": "Feature",
      "geometry": {
        "type": "Polygon",
        "coordinates": [
          [
            [
              -76.33634753425936,
              39.56705739563705
            ],
            [
              -76.33261862589728,
              39.56705739563705
            ],
            [
              -76.33261862589728,
              39.56993196844359
            ],
            [
              -76.33634753425936,
              39.56993196844359
            ],
            [
              -76.33634753425936,
              39.56705739563705
            ]
          ]
        ]
      },
      "properties": {
        "cell_id": "dr19ngnzjw5"
      }
    },
    {
      "type": "Feature",
      "geometry": {
        "type": "Polygon",
        "coordinates": [
          [
            [
              -76.33448308007831,
              39.56562010923378
            ],
            [
              -76.33075417171624,
              39.56562010923378
            ],
            [
              -76.33075417171624,
              39.56849468204032
            ],
            [
              -76.33448308007831,
              39.56849468204032
            ],
            [
              -76.33448308007831,
              39.56562010923378
            ]
          ]
        ]
      },
      "properties": {
        "cell_id": "dr19p4bqc44"
      }
    },
    {
      "type": "Feature",
      "geometry": {
        "type": "Polygon",
        "coordinates": [
          [
            [
              -76.33261862589728,
              39.56705739563705
            ],
            [
              -76.3288897175352,
              39.56705739563705
            ],
            [
              -76.3288897175352,
              39.56993196844359
            ],
            [
              -76.33261862589728,
              39.56993196844359
            ],
            [
              -76.33261862589728,
              39.56705739563705
            ]
          ]
        ]
      },
      "properties": {
        "cell_id": "dr19p51xhw0"
      }
    },
    {
      "type": "Feature",
      "geometry": {
        "type": "Polygon",
        "coordinates": [
          [
            [
              -76.33075417171624,
              39.56562010923378
            ],
            [
              -76.32702526335416,
              39.56562010923378
            ],
            [
              -76.32702526335416,
              39.56849468204032
            ],
            [
              -76.33075417171624,
              39.56849468204032
            ],
            [
              -76.33075417171624,
              39.56562010923378
            ]
          ]
        ]
      },
      "properties": {
        "cell_id": "dr19p4fyzfn"
      }
    },
    {
      "type": "Feature",
      "geometry": {
        "type": "Polygon",
        "coordinates": [
          [
            [
              -76.3288897175352,
              39.56705739563705
            ],
            [
              -76.32516080917313,
              39.56705739563705
            ],
            [
              -76.32516080917313,
              39.56993196844359
            ],
            [
              -76.3288897175352,
              39.56993196844359
            ],
            [
              -76.3288897175352,
              39.56705739563705
            ]
          ]
        ]
      },
      "properties": {
        "cell_id": "dr19p5hr5qh"
      }
    },
    {
      "type": "Feature",
      "geometry": {
        "type": "Polygon",
        "coordinates": [
          [
            [
              -76.32702526335416,
              39.56562010923378
            ],
            [
              -76.32329635499208,
              39.56562010923378
            ],
            [
              -76.32329635499208,
              39.56849468204032
            ],
            [
              -76.32702526335416,
              39.56849468204032
            ],
            [
              -76.32702526335416,
              39.56562010923378
            ]
          ]
        ]
      },
      "properties": {
        "cell_id": "dr19p4vwyf5"
      }
    },
    {
      "type": "Feature",
      "geometry": {
        "type": "Polygon",
        "coordinates": [
          [
            [
              -76.32516080917313,
              39.56705739563705
            ],
            [
              -76.32143190081105,
              39.56705739563705
            ],
            [
              -76.32143190081105,
              39.56993196844359
            ],
            [
              -76.32516080917313,
              39.56993196844359
            ],
            [
              -76.32516080917313,
              39.56705739563705
            ]
          ]
        ]
      },
      "properties": {
        "cell_id": "dr19p5pp4q1"
      }
    },
    {
      "type": "Feature",
      "geometry": {
        "type": "Polygon",
        "coordinates": [
          [
            [
              -76.32329635499208,
              39.56562010923378
            ],
            [
              -76.31956744663,
              39.56562010923378
            ],
            [
              -76.31956744663,
              39.56849468204032
            ],
            [
              -76.32329635499208,
              39.56849468204032
            ],
            [
              -76.32329635499208,
              39.56562010923378
            ]
          ]
        ]
      },
      "properties": {
        "cell_id": "dr19p6bqvdp"
      }
    },
    {
      "type": "Feature",
      "geometry": {
        "type": "Polygon",
        "coordinates": [
          [
            [
              -76.32143190081105,
              39.56705739563705
            ],
            [
              -76.31770299244897,
              39.56705739563705
            ],
            [
              -76.31770299244897,
              39.56993196844359
            ],
            [
              -76.32143190081105,
              39.56993196844359
            ],
            [
              -76.32143190081105,
              39.56705739563705
            ]
          ]
        ]
      },
      "properties": {
        "cell_id": "dr19p71z1nj"
      }
    },
    {
      "type": "Feature",
      "geometry": {
        "type": "Polygon",
        "coordinates": [
          [
            [
              -76.31956744663,
              39.56562010923378
            ],
            [
              -76.31583853826793,
              39.56562010923378
            ],
            [
              -76.31583853826793,
              39.56849468204032
            ],
            [
              -76.31956744663,
              39.56849468204032
            ],
            [
              -76.31956744663,
              39.56562010923378
            ]
          ]
        ]
      },
      "properties": {
        "cell_id": "dr19p6gnudh"
      }
    },
    {
      "type": "Feature",
      "geometry": {
        "type": "Polygon",
        "coordinates": [
          [
            [
              -76.31770299244897,
              39.56705739563705
            ],
            [
              -76.3139740840869,
              39.56705739563705
            ],
            [
              -76.3139740840869,
              39.56993196844359
            ],
            [
              -76.31770299244897,
              39.56993196844359
            ],
            [
              -76.31770299244897,
              39.56705739563705
            ]
          ]
        ]
      },
      "properties": {
        "cell_id": "dr19p7hx0n4"
      }
    },
    {
      "type": "Feature",
      "geometry": {
        "type": "Polygon",
        "coordinates": [
          [
            [
              -76.31583853826793,
              39.56562010923378
            ],
            [
              -76.31210962990585,
              39.56562010923378
            ],
            [
              -76.31210962990585,
              39.56849468204032
            ],
            [
              -76.31583853826793,
              39.56849468204032
            ],
            [
              -76.31583853826793,
              39.56562010923378
            ]
          ]
        ]
      },
      "properties": {
        "cell_id": "dr19p6vygd0"
      }
    },
    {
      "type": "Feature",
      "geometry": {
        "type": "Polygon",
        "coordinates": [
          [
            [
              -76.3139740840869,
              39.56705739563705
            ],
            [
              -76.31024517572482,
              39.56705739563705
            ],
            [
              -76.31024517572482,
              39.56993196844359
            ],
            [
              -76.3139740840869,
              39.56993196844359
            ],
            [
              -76.3139740840869,
              39.56705739563705
            ]
          ]
        ]
      },
      "properties": {
        "cell_id": "dr19p7ppnyn"
      }
    },
    {
      "type": "Feature",
      "geometry": {
        "type": "Polygon",
        "coordinates": [
          [
            [
              -76.31210962990585,
              39.56562010923378
            ],
            [
              -76.30838072154377,
              39.56562010923378
            ],
            [
              -76.30838072154377,
              39.56849468204032
            ],
            [
              -76.31210962990585,
              39.56849468204032
            ],
            [
              -76.31210962990585,
              39.56562010923378
            ]
          ]
        ]
      },
      "properties": {
        "cell_id": "dr19pdbwf6j"
      }
    },
    {
      "type": "Feature",
      "geometry": {
        "type": "Polygon",
        "coordinates": [
          [
            [
              -76.31024517572482,
              39.56705739563705
            ],
            [
              -76.30651626736274,
              39.56705739563705
            ],
            [
              -76.30651626736274,
              39.56993196844359
            ],
            [
              -76.31024517572482,
              39.56993196844359
            ],
            [
              -76.31024517572482,
              39.56705739563705
            ]
          ]
        ]
      },
      "properties": {
        "cell_id": "dr19pe1zjy5"
      }
    },
    {
      "type": "Feature",
      "geometry": {
        "type": "Polygon",
        "coordinates": [
          [
            [
              -76.30838072154377,
              39.56562010923378
            ],
            [
              -76.30465181318169,
              39.56562010923378
            ],
            [
              -76.30465181318169,
              39.56849468204032
            ],
            [
              -76.30838072154377,
              39.56849468204032
            ],
            [
              -76.30838072154377,
              39.56562010923378
            ]
          ]
        ]
      },
      "properties": {
        "cell_id": "dr19pdgqc61"
      }
    },
    {
      "type": "Feature",
      "geometry": {
        "type": "Polygon",
        "coordinates": [
          [
            [
              -76.30651626736274,
              39.56705739563705
            ],
            [
              -76.30278735900066,
              39.56705739563705
            ],
            [
              -76.30278735900066,
              39.56993196844359
            ],
            [
              -76.30651626736274,
              39.56993196844359
            ],
            [
              -76.30651626736274,
              39.56705739563705
            ]
          ]
        ]
      },
      "properties": {
        "cell_id": "dr19pehxhwp"
      }
    },
    {
      "type": "Feature",
      "geometry": {
        "type": "Polygon",
        "coordinates": [
          [
            [
              -76.3376459254809,
              39.568494682040324
            ],
            [
              -76.33391686261511,
              39.568494682040324
            ],
            [
              -76.33391686261511,
              39.571369254846864
            ],
            [
              -76.3376459254809,
              39.571369254846864
            ],
            [
              -76.3376459254809,
              39.568494682040324
            ]
          ]
        ]
      },
      "properties": {
        "cell_id": "dr19ngmzx3g"
      }
    },
    {
      "type": "Feature",
      "geometry": {
        "type": "Polygon",
        "coordinates": [
          [
            [
              -76.33391686261511,
              39.568494682040324
            ],
            [
              -76.33018779974932,
              39.568494682040324
            ],
            [
              -76.33018779974932,
              39.571369254846864
            ],
            [
              -76.33391686261511,
              39.571369254846864
            ],
            [
              -76.33391686261511,
              39.568494682040324
            ]
          ]
        ]
      },
      "properties": {
        "cell_id": "dr19p52xw3b"
      }
    },
    {
      "type": "Feature",
      "geometry": {
        "type": "Polygon",
        "coordinates": [
          [
            [
              -76.33018779974932,
              39.568494682040324
            ],
            [
              -76.32645873688354,
              39.568494682040324
            ],
            [
              -76.32645873688354,
              39.571369254846864
            ],
            [
              -76.33018779974932,
              39.571369254846864
            ],
            [
              -76.33018779974932,
              39.568494682040324
            ]
          ]
        ]
      },
      "properties": {
        "cell_id": "dr19p57rt1v"
      }
    },
    {
      "type": "Feature",
      "geometry": {
        "type": "Polygon",
        "coordinates": [
          [
            [
              -76.32645873688355,
              39.568494682040324
            ],
            [
              -76.32272967401776,
              39.568494682040324
            ],
            [
              -76.32272967401776,
              39.571369254846864
            ],
            [
              -76.32645873688355,
              39.571369254846864
            ],
            [
              -76.32645873688355,
              39.568494682040324
            ]
          ]
        ]
      },
      "properties": {
        "cell_id": "dr19p5qps1c"
      }
    },
    {
      "type": "Feature",
      "geometry": {
        "type": "Polygon",
        "coordinates": [
          [
            [
              -76.32272967401776,
              39.568494682040324
            ],
            [
              -76.31900061115198,
              39.568494682040324
            ],
            [
              -76.31900061115198,
              39.571369254846864
            ],
            [
              -76.32272967401776,
              39.571369254846864
            ],
            [
              -76.32272967401776,
              39.568494682040324
            ]
          ]
        ]
      },
      "properties": {
        "cell_id": "dr19p72zdcy"
      }
    },
    {
      "type": "Feature",
      "geometry": {
        "type": "Polygon",
        "coordinates": [
          [
            [
              -76.31900061115198,
              39.568494682040324
            ],
            [
              -76.31527154828619,
              39.568494682040324
            ],
            [
              -76.31527154828619,
              39.571369254846864
            ],
            [
              -76.31900061115198,
              39.571369254846864
            ],
            [
              -76.31900061115198,
              39.568494682040324
            ]
          ]
        ]
      },
      "properties": {
        "cell_id": "dr19p77x9cf"
      }
    },
    {
      "type": "Feature",
      "geometry": {
        "type": "Polygon",
        "coordinates": [
          [
            [
              -76.31527154828619,
              39.568494682040324
            ],
            [
              -76.3115424854204,
              39.568494682040324
            ],
            [
              -76.3115424854204,
              39.571369254846864
            ],
            [
              -76.31527154828619,
              39.571369254846864
            ],
            [
              -76.31527154828619,
              39.568494682040324
            ]
          ]
        ]
      },
      "properties": {
        "cell_id": "dr19p7qr89z"
      }
    },
    {
      "type": "Feature",
      "geometry": {
        "type": "Polygon",
        "coordinates": [
          [
            [
              -76.3115424854204,
              39.568494682040324
            ],
            [
              -76.30781342255462,
              39.568494682040324
            ],
            [
              -76.30781342255462,
              39.571369254846864
            ],
            [
              -76.3115424854204,
              39.571369254846864
            ],
            [
              -76.3115424854204,
              39.568494682040324
            ]
          ]
        ]
      },
      "properties": {
        "cell_id": "dr19pe2zx9u"
      }
    },
    {
      "type": "Feature",
      "geometry": {
        "type": "Polygon",
        "coordinates": [
          [
            [
              -76.30781342255462,
              39.568494682040324
            ],
            [
              -76.30408435968883,
              39.568494682040324
            ],
            [
              -76.30408435968883,
              39.571369254846864
            ],
            [
              -76.30781342255462,
              39.571369254846864
            ],
            [
              -76.30781342255462,
              39.568494682040324
            ]
          ]
        ]
      },
      "properties": {
        "cell_id": "dr19pe7xw9b"
      }
    }
  ]
}